ISS (ZARYA)
1 25544U 98067A   26001.50000000  .00016717  00000+0  10270-3 0  9998
2 25544  51.6400 208.1000 0005000 120.0000 240.0000 15.50000000400008
CZ-4B R/B
1 25942U 99057B   26001.50000000  .00000215  00000+0  34120-4 0  9997
2 25942  98.5000 145.0000 0012000  85.0000 275.0000 14.40000000250002
COSMOS 2251 DEB
1 34455U 93036SX  26001.50000000  .00000850  00000+0  15420-3 0  9993
2 34455  74.0300  62.1500 0025000 190.2000 169.8000 14.30000000120005
D-DATO SSO TARGET
1 48000U 21050A   26001.50000000  .00001500  00000+0  50000-4 0  9998
2 48000  97.5000  45.0000 0001500 110.0000 250.0000 15.06400000 50000
TDRS 3 (GEO OUT OF BAND)
1 19548U 88091B   26001.50000000  .00000000  00000+0  00000-0 0  9996
2 19548  14.2000  80.0000 0002000 240.0000 120.0000  1.00270000 10006
